[{"OBJECT_NAME":"CONTINUUM-1","OBJECT_ID":"2023-001AN","EPOCH":"2026-03-09T23:17:35.458656","MEAN_MOTION":15.27981258,"ECCENTRICITY":0.00109493,"INCLINATION":97.3456,"RA_OF_ASC_NODE":133.3964,"ARG_OF_PERICENTER":60.1976,"MEAN_ANOMALY":300.0351,"EPHEMERIS_TYPE":0,"CLASSIFICATION_TYPE":"U","NORAD_CAT_ID":55045,"ELEMENT_SET_NO":999,"REV_AT_EPOCH":17709,"BSTAR":0.00052859897,"MEAN_MOTION_DOT":0.00014395,"MEAN_MOTION_DDOT":0},{"OBJECT_NAME":"STARLINK-32770","OBJECT_ID":"2025-014G","EPOCH":"2026-03-09T06:10:02.626176","MEAN_MOTION":15.27588135,"ECCENTRICITY":4.079e-5,"INCLINATION":42.9954,"RA_OF_ASC_NODE":156.6242,"ARG_OF_PERICENTER":256.5,"MEAN_ANOMALY":103.5806,"EPHEMERIS_TYPE":0,"CLASSIFICATION_TYPE":"U","NORAD_CAT_ID":62741,"ELEMENT_SET_NO":999,"REV_AT_EPOCH":6319,"BSTAR":0.0012357319,"MEAN_MOTION_DOT":0.00033908,"MEAN_MOTION_DDOT":0}]
